{
  "type": "FeatureCollection",
  "features": [
    {
      "type": "Feature",
      "properties": {
        "norad_id": 66657,
        "name": "SPIRONE",
        "group": "last-30-days",
        "lat": 44.25468379809569,
        "lon": 97.70049730708367,
        "alt_km": 593.7082268831082,
        "timestamp": "2025-12-08T19:31:47.637678+00:00",
        "meta_object_name": "SPIRONE",
        "meta_object_id": "2025-274H",
        "meta_epoch": "2025-12-08T01:13:30.635328",
        "meta_mean_motion": 14.92408405,
        "meta_eccentricity": 0.00109817,
        "meta_inclination": 97.7387,
        "meta_ra_of_asc_node": 269.3374,
        "meta_arg_of_pericenter": 294.0739,
        "meta_mean_anomaly": 65.9331,
        "meta_ephemeris_type": 0,
        "meta_classification_type": "U",
        "meta_norad_cat_id": 66657,
        "meta_element_set_no": 999,
        "meta_rev_at_epoch": 170,
        "meta_bstar": 0.00037849596,
        "meta_mean_motion_dot": 3.824e-05,
        "meta_mean_motion_ddot": 0,
        "tle_line1": "1 66657U 25274H   25342.05104902  .00003824  00000+0  37850-3 0  9999",
        "tle_line2": "2 66657  97.7387 269.3374 0010981 294.0739  65.9331 14.92408405  1702"
      },
      "geometry": {
        "type": "Point",
        "coordinates": [
          97.70049730708367,
          44.25468379809569
        ]
      }
    },
    {
      "type": "Feature",
      "properties": {
        "norad_id": 66658,
        "name": "2025-274J",
        "group": "last-30-days",
        "lat": 36.7495318860712,
        "lon": 95.91822555803546,
        "alt_km": 594.4041261714165,
        "timestamp": "2025-12-08T19:31:47.637688+00:00",
        "meta_object_name": "2025-274J",
        "meta_object_id": "2025-274J",
        "meta_epoch": "2025-12-08T06:01:12.095616",
        "meta_mean_motion": 14.92583165,
        "meta_eccentricity": 0.00115832,
        "meta_inclination": 97.7387,
        "meta_ra_of_asc_node": 269.5369,
        "meta_arg_of_pericenter": 296.1816,
        "meta_mean_anomaly": 63.8212,
        "meta_ephemeris_type": 0,
        "meta_classification_type": "U",
        "meta_norad_cat_id": 66658,
        "meta_element_set_no": 999,
        "meta_rev_at_epoch": 173,
        "meta_bstar": 0.0003872742,
        "meta_mean_motion_dot": 3.932e-05,
        "meta_mean_motion_ddot": 0,
        "tle_line1": "1 66658U 25274J   25342.25083444  .00003932  00000+0  38727-3 0  9993",
        "tle_line2": "2 66658  97.7387 269.5369 0011583 296.1816  63.8212 14.92583165  1732"
      },
      "geometry": {
        "type": "Point",
        "coordinates": [
          95.91822555803546,
          36.7495318860712
        ]
      }
    },
    {
      "type": "Feature",
      "properties": {
        "norad_id": 66659,
        "name": "JACK K",
        "group": "last-30-days",
        "lat": 28.754503940632354,
        "lon": 94.37335146046621,
        "alt_km": 595.0021089817492,
        "timestamp": "2025-12-08T19:31:47.637698+00:00",
        "meta_object_name": "JACK K",
        "meta_object_id": "2025-274K",
        "meta_epoch": "2025-12-08T05:59:07.622592",
        "meta_mean_motion": 14.92769496,
        "meta_eccentricity": 0.00123128,
        "meta_inclination": 97.7389,
        "meta_ra_of_asc_node": 269.5391,
        "meta_arg_of_pericenter": 297.4062,
        "meta_mean_anomaly": 62.5904,
        "meta_ephemeris_type": 0,
        "meta_classification_type": "U",
        "meta_norad_cat_id": 66659,
        "meta_element_set_no": 999,
        "meta_rev_at_epoch": 173,
        "meta_bstar": 0.000393395,
        "meta_mean_motion_dot": 4.015e-05,
        "meta_mean_motion_ddot": 0,
        "tle_line1": "1 66659U 25274K   25342.24939378  .00004015  00000+0  39340-3 0  9994",
        "tle_line2": "2 66659  97.7389 269.5391 0012312 297.4062  62.5904 14.92769496  1735"
      },
      "geometry": {
        "type": "Point",
        "coordinates": [
          94.37335146046621,
          28.754503940632354
        ]
      }
    },
    {
      "type": "Feature",
      "properties": {
        "norad_id": 66660,
        "name": "K-HERO",
        "group": "last-30-days",
        "lat": 22.31517686153317,
        "lon": 93.29721473175395,
        "alt_km": 595.337570957412,
        "timestamp": "2025-12-08T19:31:47.637707+00:00",
        "meta_object_name": "K-HERO",
        "meta_object_id": "2025-274L",
        "meta_epoch": "2025-12-08T05:57:27.537696",
        "meta_mean_motion": 14.92919712,
        "meta_eccentricity": 0.00129254,
        "meta_inclination": 97.7394,
        "meta_ra_of_asc_node": 269.5412,
        "meta_arg_of_pericenter": 297.995,
        "meta_mean_anomaly": 61.9962,
        "meta_ephemeris_type": 0,
        "meta_classification_type": "U",
        "meta_norad_cat_id": 66660,
        "meta_element_set_no": 999,
        "meta_rev_at_epoch": 173,
        "meta_bstar": 0.00041545386,
        "meta_mean_motion_dot": 4.26e-05,
        "meta_mean_motion_ddot": 0,
        "tle_line1": "1 66660U 25274L   25342.24823539  .00004260  00000+0  41545-3 0  9999",
        "tle_line2": "2 66660  97.7394 269.5412 0012925 297.9950  61.9962 14.92919712  1733"
      },
      "geometry": {
        "type": "Point",
        "coordinates": [
          93.29721473175395,
          22.31517686153317
        ]
      }
    },
    {
      "type": "Feature",
      "properties": {
        "norad_id": 66661,
        "name": "SNUGLITE-III",
        "group": "last-30-days",
        "lat": 15.77275593652788,
        "lon": 92.30123777532191,
        "alt_km": 595.6058098048215,
        "timestamp": "2025-12-08T19:31:47.637716+00:00",
        "meta_object_name": "SNUGLITE-III",
        "meta_object_id": "2025-274M",
        "meta_epoch": "2025-12-08T07:32:16.033344",
        "meta_mean_motion": 14.93065178,
        "meta_eccentricity": 0.00135592,
        "meta_inclination": 97.7392,
        "meta_ra_of_asc_node": 269.6083,
        "meta_arg_of_pericenter": 298.7722,
        "meta_mean_anomaly": 61.2135,
        "meta_ephemeris_type": 0,
        "meta_classification_type": "U",
        "meta_norad_cat_id": 66661,
        "meta_element_set_no": 999,
        "meta_rev_at_epoch": 174,
        "meta_bstar": 0.00032623995,
        "meta_mean_motion_dot": 3.346e-05,
        "meta_mean_motion_ddot": 0,
        "tle_line1": "1 66661U 25274M   25342.31407446  .00003346  00000+0  32624-3 0  9995",
        "tle_line2": "2 66661  97.7392 269.6083 0013559 298.7722  61.2135 14.93065178  1742"
      },
      "geometry": {
        "type": "Point",
        "coordinates": [
          92.30123777532191,
          15.77275593652788
        ]
      }
    },
    {
      "type": "Feature",
      "properties": {
        "norad_id": 66662,
        "name": "2025-274N",
        "group": "last-30-days",
        "lat": 13.15661374403325,
        "lon": 91.92251379503837,
        "alt_km": 595.6354884733855,
        "timestamp": "2025-12-08T19:31:47.637725+00:00",
        "meta_object_name": "2025-274N",
        "meta_object_id": "2025-274N",
        "meta_epoch": "2025-12-08T07:31:34.703040",
        "meta_mean_motion": 14.93111833,
        "meta_eccentricity": 0.00139092,
        "meta_inclination": 97.739,
        "meta_ra_of_asc_node": 269.6089,
        "meta_arg_of_pericenter": 298.3021,
        "meta_mean_anomaly": 61.6794,
        "meta_ephemeris_type": 0,
        "meta_classification_type": "U",
        "meta_norad_cat_id": 66662,
        "meta_element_set_no": 999,
        "meta_rev_at_epoch": 174,
        "meta_bstar": 0.00025183487,
        "meta_mean_motion_dot": 2.573e-05,
        "meta_mean_motion_ddot": 0,
        "tle_line1": "1 66662U 25274N   25342.31359610  .00002573  00000+0  25183-3 0  9998",
        "tle_line2": "2 66662  97.7390 269.6089 0013909 298.3021  61.6794 14.93111833  1749"
      },
      "geometry": {
        "type": "Point",
        "coordinates": [
          91.92251379503837,
          13.15661374403325
        ]
      }
    },
    {
      "type": "Feature",
      "properties": {
        "norad_id": 66663,
        "name": "KSLV-II R/B",
        "group": "last-30-days",
        "lat": -8.855075592754584,
        "lon": -88.59076285626601,
        "alt_km": 547.6077698679392,
        "timestamp": "2025-12-08T19:31:47.637734+00:00",
        "meta_object_name": "KSLV-II R/B",
        "meta_object_id": "2025-274P",
        "meta_epoch": "2025-12-06T19:27:04.446432",
        "meta_mean_motion": 14.97226496,
        "meta_eccentricity": 0.00484111,
        "meta_inclination": 97.7412,
        "meta_ra_of_asc_node": 268.2109,
        "meta_arg_of_pericenter": 339.2416,
        "meta_mean_anomaly": 20.6839,
        "meta_ephemeris_type": 0,
        "meta_classification_type": "U",
        "meta_norad_cat_id": 66663,
        "meta_element_set_no": 999,
        "meta_rev_at_epoch": 152,
        "meta_bstar": 0.00053388811,
        "meta_mean_motion_dot": 6.269e-05,
        "meta_mean_motion_ddot": 0,
        "tle_line1": "1 66663U 25274P   25340.81046813  .00006269  00000+0  53389-3 0  9995",
        "tle_line2": "2 66663  97.7412 268.2109 0048411 339.2416  20.6839 14.97226496  1529"
      },
      "geometry": {
        "type": "Point",
        "coordinates": [
          -88.59076285626601,
          -8.855075592754584
        ]
      }
    }
  ]
}